[{"OBJECT_NAME":"STARLINK-5096","OBJECT_ID":"2022-125AU","EPOCH":"2025-12-30T04:05:20.983200","MEAN_MOTION":15.08838716,"ECCENTRICITY":0.00012395,"INCLINATION":53.217,"RA_OF_ASC_NODE":165.7776,"ARG_OF_PERICENTER":89.1029,"MEAN_ANOMALY":271.0105,"EPHEMERIS_TYPE":0,"CLASSIFICATION_TYPE":"U","NORAD_CAT_ID":54006,"ELEMENT_SET_NO":999,"REV_AT_EPOCH":17896,"BSTAR":5.1005641e-5,"MEAN_MOTION_DOT":5.24e-6,"MEAN_MOTION_DDOT":0},{"OBJECT_NAME":"STARLINK-5132","OBJECT_ID":"2022-125AV","EPOCH":"2025-12-30T04:15:57.845376","MEAN_MOTION":15.08838234,"ECCENTRICITY":0.00015027,"INCLINATION":53.2174,"RA_OF_ASC_NODE":165.8189,"ARG_OF_PERICENTER":86.6745,"MEAN_ANOMALY":273.4419,"EPHEMERIS_TYPE":0,"CLASSIFICATION_TYPE":"U","NORAD_CAT_ID":54007,"ELEMENT_SET_NO":999,"REV_AT_EPOCH":17897,"BSTAR":2.179163e-5,"MEAN_MOTION_DOT":5.9e-7,"MEAN_MOTION_DDOT":0},{"OBJECT_NAME":"STARLINK-5145","OBJECT_ID":"2022-125AW","EPOCH":"2025-12-29T20:15:03.583008","MEAN_MOTION":15.08837979,"ECCENTRICITY":0.00012137,"INCLINATION":53.2159,"RA_OF_ASC_NODE":157.3137,"ARG_OF_PERICENTER":84.0015,"MEAN_ANOMALY":276.1116,"EPHEMERIS_TYPE":0,"CLASSIFICATION_TYPE":"U","NORAD_CAT_ID":54008,"ELEMENT_SET_NO":999,"REV_AT_EPOCH":17906,"BSTAR":-2.5819507e-5,"MEAN_MOTION_DOT":-6.99e-6,"MEAN_MOTION_DDOT":0},{"OBJECT_NAME":"STARLINK-5099","OBJECT_ID":"2022-125AX","EPOCH":"2025-12-30T04:10:38.997408","MEAN_MOTION":15.08843704,"ECCENTRICITY":0.00014576,"INCLINATION":53.2176,"RA_OF_ASC_NODE":165.7959,"ARG_OF_PERICENTER":88.0609,"MEAN_ANOMALY":272.055,"EPHEMERIS_TYPE":0,"CLASSIFICATION_TYPE":"U","NORAD_CAT_ID":54009,"ELEMENT_SET_NO":999,"REV_AT_EPOCH":17897,"BSTAR":2.1517137e-5,"MEAN_MOTION_DOT":5.5e-7,"MEAN_MOTION_DDOT":0},{"OBJECT_NAME":"STARLINK-5127","OBJECT_ID":"2022-125AY","EPOCH":"2025-12-30T04:01:22.133856","MEAN_MOTION":15.088418,"ECCENTRICITY":0.0001364,"INCLINATION":53.2171,"RA_OF_ASC_NODE":155.7915,"ARG_OF_PERICENTER":83.3515,"MEAN_ANOMALY":276.7633,"EPHEMERIS_TYPE":0,"CLASSIFICATION_TYPE":"U","NORAD_CAT_ID":54010,"ELEMENT_SET_NO":999,"REV_AT_EPOCH":17911,"BSTAR":4.7338894e-5,"MEAN_MOTION_DOT":4.66e-6,"MEAN_MOTION_DDOT":0},{"OBJECT_NAME":"STARLINK-5124","OBJECT_ID":"2022-125AZ","EPOCH":"2025-12-30T03:45:34.750944","MEAN_MOTION":15.08840574,"ECCENTRICITY":0.00013038,"INCLINATION":53.2184,"RA_OF_ASC_NODE":156.4194,"ARG_OF_PERICENTER":81.2408,"MEAN_ANOMALY":278.8732,"EPHEMERIS_TYPE":0,"CLASSIFICATION_TYPE":"U","NORAD_CAT_ID":54011,"ELEMENT_SET_NO":999,"REV_AT_EPOCH":17910,"BSTAR":3.4369872e-5,"MEAN_MOTION_DOT":2.59e-6,"MEAN_MOTION_DDOT":0},{"OBJECT_NAME":"STARLINK-5126","OBJECT_ID":"2022-125BA","EPOCH":"2025-12-30T03:08:25.922112","MEAN_MOTION":15.08839455,"ECCENTRICITY":0.00013177,"INCLINATION":53.2163,"RA_OF_ASC_NODE":156.2559,"ARG_OF_PERICENTER":87.2958,"MEAN_ANOMALY":272.8185,"EPHEMERIS_TYPE":0,"CLASSIFICATION_TYPE":"U","NORAD_CAT_ID":54012,"ELEMENT_SET_NO":999,"REV_AT_EPOCH":17910,"BSTAR":8.0198066e-5,"MEAN_MOTION_DOT":9.89e-6,"MEAN_MOTION_DDOT":0},{"OBJECT_NAME":"STARLINK-5098","OBJECT_ID":"2022-125BB","EPOCH":"2025-12-30T03:19:02.973504","MEAN_MOTION":15.08836097,"ECCENTRICITY":0.00015912,"INCLINATION":53.2186,"RA_OF_ASC_NODE":156.301,"ARG_OF_PERICENTER":87.1773,"MEAN_ANOMALY":272.9402,"EPHEMERIS_TYPE":0,"CLASSIFICATION_TYPE":"U","NORAD_CAT_ID":54013,"ELEMENT_SET_NO":999,"REV_AT_EPOCH":17910,"BSTAR":5.3001958e-5,"MEAN_MOTION_DOT":5.56e-6,"MEAN_MOTION_DDOT":0},{"OBJECT_NAME":"STARLINK-5055","OBJECT_ID":"2022-125BD","EPOCH":"2025-12-29T19:16:48.709056","MEAN_MOTION":15.08842647,"ECCENTRICITY":0.00013372,"INCLINATION":53.2178,"RA_OF_ASC_NODE":157.7622,"ARG_OF_PERICENTER":86.808,"MEAN_ANOMALY":273.3065,"EPHEMERIS_TYPE":0,"CLASSIFICATION_TYPE":"U","NORAD_CAT_ID":54015,"ELEMENT_SET_NO":999,"REV_AT_EPOCH":17905,"BSTAR":9.873252e-6,"MEAN_MOTION_DOT":-1.31e-6,"MEAN_MOTION_DDOT":0},{"OBJECT_NAME":"STARLINK-5195","OBJECT_ID":"2022-136A","EPOCH":"2025-12-30T05:23:37.434048","MEAN_MOTION":15.08842247,"ECCENTRICITY":0.00014225,"INCLINATION":53.2194,"RA_OF_ASC_NODE":296.2076,"ARG_OF_PERICENTER":92.4769,"MEAN_ANOMALY":267.6386,"EPHEMERIS_TYPE":0,"CLASSIFICATION_TYPE":"U","NORAD_CAT_ID":54051,"ELEMENT_SET_NO":999,"REV_AT_EPOCH":17635,"BSTAR":1.3789133e-5,"MEAN_MOTION_DOT":-6.8e-7,"MEAN_MOTION_DDOT":0},{"OBJECT_NAME":"STARLINK-5189","OBJECT_ID":"2022-136B","EPOCH":"2025-12-30T02:39:16.345440","MEAN_MOTION":15.08848431,"ECCENTRICITY":0.00015319,"INCLINATION":53.2165,"RA_OF_ASC_NODE":256.2891,"ARG_OF_PERICENTER":90.4189,"MEAN_ANOMALY":269.6979,"EPHEMERIS_TYPE":0,"CLASSIFICATION_TYPE":"U","NORAD_CAT_ID":54052,"ELEMENT_SET_NO":999,"REV_AT_EPOCH":17690,"BSTAR":8.594413e-6,"MEAN_MOTION_DOT":-1.51e-6,"MEAN_MOTION_DDOT":0},{"OBJECT_NAME":"STARLINK-5176","OBJECT_ID":"2022-136C","EPOCH":"2025-12-30T05:18:18.933408","MEAN_MOTION":15.08846816,"ECCENTRICITY":0.00016188,"INCLINATION":53.2192,"RA_OF_ASC_NODE":296.1831,"ARG_OF_PERICENTER":115.7361,"MEAN_ANOMALY":244.3799,"EPHEMERIS_TYPE":0,"CLASSIFICATION_TYPE":"U","NORAD_CAT_ID":54053,"ELEMENT_SET_NO":999,"REV_AT_EPOCH":17635,"BSTAR":2.2361614e-5,"MEAN_MOTION_DOT":6.8e-7,"MEAN_MOTION_DDOT":0},{"OBJECT_NAME":"STARLINK-5163","OBJECT_ID":"2022-136D","EPOCH":"2025-12-30T05:07:42.359808","MEAN_MOTION":15.08844389,"ECCENTRICITY":0.00014339,"INCLINATION":53.2185,"RA_OF_ASC_NODE":296.1368,"ARG_OF_PERICENTER":91.9747,"MEAN_ANOMALY":268.141,"EPHEMERIS_TYPE":0,"CLASSIFICATION_TYPE":"U","NORAD_CAT_ID":54054,"ELEMENT_SET_NO":999,"REV_AT_EPOCH":17635,"BSTAR":5.7886655e-5,"MEAN_MOTION_DOT":6.34e-6,"MEAN_MOTION_DDOT":0},{"OBJECT_NAME":"STARLINK-5158","OBJECT_ID":"2022-136E","EPOCH":"2025-12-30T05:13:01.202592","MEAN_MOTION":15.08839617,"ECCENTRICITY":0.00014051,"INCLINATION":53.2191,"RA_OF_ASC_NODE":296.1639,"ARG_OF_PERICENTER":81.5182,"MEAN_ANOMALY":278.5969,"EPHEMERIS_TYPE":0,"CLASSIFICATION_TYPE":"U","NORAD_CAT_ID":54055,"ELEMENT_SET_NO":999,"REV_AT_EPOCH":17635,"BSTAR":4.5154447e-5,"MEAN_MOTION_DOT":4.31e-6,"MEAN_MOTION_DDOT":0},{"OBJECT_NAME":"STARLINK-5226","OBJECT_ID":"2022-136F","EPOCH":"2025-12-30T02:18:02.380032","MEAN_MOTION":15.0883652,"ECCENTRICITY":0.00013938,"INCLINATION":53.2185,"RA_OF_ASC_NODE":296.126,"ARG_OF_PERICENTER":96.9066,"MEAN_ANOMALY":263.2085,"EPHEMERIS_TYPE":0,"CLASSIFICATION_TYPE":"U","NORAD_CAT_ID":54056,"ELEMENT_SET_NO":999,"REV_AT_EPOCH":17634,"BSTAR":3.1077348e-5,"MEAN_MOTION_DOT":2.07e-6,"MEAN_MOTION_DDOT":0},{"OBJECT_NAME":"STARLINK-5167","OBJECT_ID":"2022-136H","EPOCH":"2025-12-30T04:51:47.693376","MEAN_MOTION":15.08840219,"ECCENTRICITY":0.00012681,"INCLINATION":53.2191,"RA_OF_ASC_NODE":296.0691,"ARG_OF_PERICENTER":87.0379,"MEAN_ANOMALY":273.0759,"EPHEMERIS_TYPE":0,"CLASSIFICATION_TYPE":"U","NORAD_CAT_ID":54058,"ELEMENT_SET_NO":999,"REV_AT_EPOCH":17635,"BSTAR":1.0505526e-5,"MEAN_MOTION_DOT":-1.21e-6,"MEAN_MOTION_DDOT":0}]
