STARLINK-5096           
1 54006U 22125AU  25364.17038175  .00000524  00000+0  51006-4 0  9995
2 54006  53.2170 165.7776 0001239  89.1029 271.0105 15.08838716178962
STARLINK-5132           
1 54007U 22125AV  25364.17775284  .00000059  00000+0  21792-4 0  9997
2 54007  53.2174 165.8189 0001502  86.6745 273.4419 15.08838234178976
STARLINK-5145           
1 54008U 22125AW  25363.84379147 -.00000699  00000+0 -25820-4 0  9997
2 54008  53.2159 157.3137 0001213  84.0015 276.1116 15.08837979179060
STARLINK-5099           
1 54009U 22125AX  25364.17406247  .00000055  00000+0  21517-4 0  9990
2 54009  53.2176 165.7959 0001457  88.0609 272.0550 15.08843704178977
STARLINK-5127           
1 54010U 22125AY  25364.16761729  .00000466  00000+0  47339-4 0  9996
2 54010  53.2171 155.7915 0001364  83.3515 276.7633 15.08841800179111
STARLINK-5124           
1 54011U 22125AZ  25364.15665221  .00000259  00000+0  34370-4 0  9997
2 54011  53.2184 156.4194 0001303  81.2408 278.8732 15.08840574179103
STARLINK-5126           
1 54012U 22125BA  25364.13085558  .00000989  00000+0  80198-4 0  9994
2 54012  53.2163 156.2559 0001317  87.2958 272.8185 15.08839455179107
STARLINK-5098           
1 54013U 22125BB  25364.13822886  .00000556  00000+0  53002-4 0  9992
2 54013  53.2186 156.3010 0001591  87.1773 272.9402 15.08836097179106
STARLINK-5055           
1 54015U 22125BD  25363.80334154 -.00000131  00000+0  98733-5 0  9994
2 54015  53.2178 157.7622 0001337  86.8080 273.3065 15.08842647179050
STARLINK-5195           
1 54051U 22136A   25364.22473882 -.00000068  00000+0  13789-4 0  9991
2 54051  53.2194 296.2076 0001422  92.4769 267.6386 15.08842247176350
STARLINK-5189           
1 54052U 22136B   25364.11060585 -.00000151  00000+0  85944-5 0  9998
2 54052  53.2165 256.2891 0001531  90.4189 269.6979 15.08848431176907
STARLINK-5176           
1 54053U 22136C   25364.22105247  .00000068  00000+0  22362-4 0  9996
2 54053  53.2192 296.1831 0001618 115.7361 244.3799 15.08846816176358
STARLINK-5163           
1 54054U 22136D   25364.21368472  .00000634  00000+0  57887-4 0  9996
2 54054  53.2185 296.1368 0001433  91.9747 268.1410 15.08844389176351
STARLINK-5158           
1 54055U 22136E   25364.21737503  .00000431  00000+0  45154-4 0  9991
2 54055  53.2191 296.1639 0001405  81.5182 278.5969 15.08839617176359
STARLINK-5226           
1 54056U 22136F   25364.09586088  .00000207  00000+0  31077-4 0  9998
2 54056  53.2185 296.1260 0001393  96.9066 263.2085 15.08836520176349
STARLINK-5167           
1 54058U 22136H   25364.20263534 -.00000121  00000+0  10506-4 0  9991
2 54058  53.2191 296.0691 0001268  87.0379 273.0759 15.08840219176352
